{
  "norad_id": 68569,
  "name": "STARLINK-37256",
  "history": [
    {
      "epoch": "2026-04-09T20:00:01.999008Z",
      "apogee_km": 282.75149910862,
      "perigee_km": 281.40879933133783,
      "latitude_deg": -49.30715169642967,
      "longitude_deg": 30.732640253353296,
      "height_km": 299.4667213834317,
      "semi_major_axis_km": 6660.217149219979,
      "eccentricity": 0.0001008,
      "inclination_deg": 53.1585,
      "raan_deg": 228.8539,
      "arg_perigee_deg": 60.0707,
      "mean_anomaly_deg": 229.0514,
      "mean_motion_rev_day": 15.97240002
    },
    {
      "epoch": "2026-04-10T12:00:02.000160Z",
      "apogee_km": 287.6796359228356,
      "perigee_km": 286.2133175579511,
      "latitude_deg": 13.804707924150112,
      "longitude_deg": 16.145529062559316,
      "height_km": 287.1535621162786,
      "semi_major_axis_km": 6665.083476740393,
      "eccentricity": 0.00011,
      "inclination_deg": 53.1587,
      "raan_deg": 225.4342,
      "arg_perigee_deg": 70.0623,
      "mean_anomaly_deg": 92.586,
      "mean_motion_rev_day": 15.9549105
    },
    {
      "epoch": "2026-04-11T20:00:01.000224Z",
      "apogee_km": 298.19693826938055,
      "perigee_km": 296.9752809403226,
      "latitude_deg": -51.28477009883532,
      "longitude_deg": -33.07912971485717,
      "height_km": 315.8472702176812,
      "semi_major_axis_km": 6675.723109604852,
      "eccentricity": 9.15e-05,
      "inclination_deg": 53.1578,
      "raan_deg": 218.6265,
      "arg_perigee_deg": 47.162,
      "mean_anomaly_deg": 209.4205,
      "mean_motion_rev_day": 15.91678278
    }
  ]
}